{
  "norad_id": 54685,
  "name": "DONGPO 09",
  "history": [
    {
      "epoch": "2026-03-28T22:12:17.192736Z",
      "apogee_km": 464.73057471759967,
      "perigee_km": 460.16188598971166,
      "latitude_deg": 6.621655184431734e-05,
      "longitude_deg": 96.07950104420235,
      "height_km": 464.71215486038983,
      "semi_major_axis_km": 6840.583230353655,
      "eccentricity": 0.00033394,
      "inclination_deg": 97.6826,
      "raan_deg": 255.4898,
      "arg_perigee_deg": 68.6822,
      "mean_anomaly_deg": 291.4777,
      "mean_motion_rev_day": 15.34486475
    },
    {
      "epoch": "2026-03-29T04:27:53.768736Z",
      "apogee_km": 464.6993873541405,
      "perigee_km": 460.1381047826617,
      "latitude_deg": -2.151235955470638e-05,
      "longitude_deg": 2.1916172426217675,
      "height_km": 464.6628486676327,
      "semi_major_axis_km": 6840.555746068401,
      "eccentricity": 0.0003334,
      "inclination_deg": 97.6826,
      "raan_deg": 255.7614,
      "arg_perigee_deg": 68.0545,
      "mean_anomaly_deg": 292.1051,
      "mean_motion_rev_day": 15.34495723
    },
    {
      "epoch": "2026-03-30T05:30:18.749088Z",
      "apogee_km": 464.55272558448905,
      "perigee_km": 460.0612900489559,
      "latitude_deg": -1.1090322196807971e-05,
      "longitude_deg": -13.354535719509279,
      "height_km": 464.4585831462284,
      "semi_major_axis_km": 6840.444007816722,
      "eccentricity": 0.0003283,
      "inclination_deg": 97.6827,
      "raan_deg": 256.8477,
      "arg_perigee_deg": 65.112,
      "mean_anomaly_deg": 295.0463,
      "mean_motion_rev_day": 15.34533322
    },
    {
      "epoch": "2026-03-30T07:04:12.738432Z",
      "apogee_km": 464.5454365211126,
      "perigee_km": 460.05345871469126,
      "latitude_deg": 3.6908955926835735e-05,
      "longitude_deg": -36.82586982784808,
      "height_km": 464.44421945117824,
      "semi_major_axis_km": 6840.436447617902,
      "eccentricity": 0.00032834,
      "inclination_deg": 97.6826,
      "raan_deg": 256.9156,
      "arg_perigee_deg": 64.9236,
      "mean_anomaly_deg": 295.2347,
      "mean_motion_rev_day": 15.34535866
    },
    {
      "epoch": "2026-03-30T14:53:42.545184Z",
      "apogee_km": 464.4995953313073,
      "perigee_km": 460.02816208491186,
      "latitude_deg": -4.160326540799767e-05,
      "longitude_deg": -154.18201284506773,
      "height_km": 464.3799435208867,
      "semi_major_axis_km": 6840.400878708109,
      "eccentricity": 0.00032684,
      "inclination_deg": 97.6826,
      "raan_deg": 257.255,
      "arg_perigee_deg": 63.9819,
      "mean_anomaly_deg": 296.1759,
      "mean_motion_rev_day": 15.34547835
    },
    {
      "epoch": "2026-03-30T21:09:18.240768Z",
      "apogee_km": 464.45690485964496,
      "perigee_km": 460.0097065091077,
      "latitude_deg": -3.37360213071151e-05,
      "longitude_deg": 111.9336692090128,
      "height_km": 464.3276449966739,
      "semi_major_axis_km": 6840.370305684376,
      "eccentricity": 0.00032507,
      "inclination_deg": 97.6826,
      "raan_deg": 257.5265,
      "arg_perigee_deg": 63.2018,
      "mean_anomaly_deg": 296.9556,
      "mean_motion_rev_day": 15.34558123
    },
    {
      "epoch": "2026-03-31T20:37:45.975360Z",
      "apogee_km": 464.32677927645636,
      "perigee_km": 459.9517385812451,
      "latitude_deg": -2.523075574864054e-05,
      "longitude_deg": 119.87235046265845,
      "height_km": 464.1640149543649,
      "semi_major_axis_km": 6840.27625892885,
      "eccentricity": 0.0003198,
      "inclination_deg": 97.6827,
      "raan_deg": 258.5448,
      "arg_perigee_deg": 60.6461,
      "mean_anomaly_deg": 299.51,
      "mean_motion_rev_day": 15.34589771
    },
    {
      "epoch": "2026-04-01T20:06:12.000096Z",
      "apogee_km": 464.20004018460077,
      "perigee_km": 459.90987178980595,
      "latitude_deg": 6.671402032852215e-06,
      "longitude_deg": 127.81837236965755,
      "height_km": 464.00933012431386,
      "semi_major_axis_km": 6840.191955987203,
      "eccentricity": 0.0003136,
      "inclination_deg": 97.683,
      "raan_deg": 259.5633,
      "arg_perigee_deg": 57.8031,
      "mean_anomaly_deg": 302.3515,
      "mean_motion_rev_day": 15.34618141
    },
    {
      "epoch": "2026-04-02T21:08:29.664960Z",
      "apogee_km": 464.0477006490146,
      "perigee_km": 459.8123311527688,
      "latitude_deg": -6.746816464207277e-05,
      "longitude_deg": 112.30269554324045,
      "height_km": 463.80639052535486,
      "semi_major_axis_km": 6840.067015900891,
      "eccentricity": 0.0003096,
      "inclination_deg": 97.6832,
      "raan_deg": 260.6495,
      "arg_perigee_deg": 54.7822,
      "mean_anomaly_deg": 305.3709,
      "mean_motion_rev_day": 15.34660188
    },
    {
      "epoch": "2026-04-02T22:42:23.145408Z",
      "apogee_km": 463.99680003262256,
      "perigee_km": 459.8161654559699,
      "latitude_deg": -7.41791504792018e-06,
      "longitude_deg": 88.8332859933049,
      "height_km": 463.808307436433,
      "semi_major_axis_km": 6840.043482744296,
      "eccentricity": 0.0003056,
      "inclination_deg": 97.6834,
      "raan_deg": 260.7172,
      "arg_perigee_deg": 55.1045,
      "mean_anomaly_deg": 305.0484,
      "mean_motion_rev_day": 15.34668108
    },
    {
      "epoch": "2026-04-03T20:36:51.230592Z",
      "apogee_km": 463.8520627413609,
      "perigee_km": 459.73579230917585,
      "latitude_deg": 8.266871028173993e-05,
      "longitude_deg": 120.26693084472552,
      "height_km": 463.6448562507211,
      "semi_major_axis_km": 6839.930927525268,
      "eccentricity": 0.0003009,
      "inclination_deg": 97.6837,
      "raan_deg": 261.6676,
      "arg_perigee_deg": 52.709,
      "mean_anomaly_deg": 307.4427,
      "mean_motion_rev_day": 15.34705989
    }
  ]
}